{
    "links": {
        "self": "http://www.neowsapp.com/rest/v1/neo/54054511?api_key=iIulBulltgU6a56xZRHN4H3l9WmuAYTsLGpBGhQ2"
    },
    "id": "54054511",
    "neo_reference_id": "54054511",
    "name": "(2020 SX1)",
    "designation": "2020 SX1",
    "nasa_jpl_url": "http://ssd.jpl.nasa.gov/sbdb.cgi?sstr=54054511",
    "absolute_magnitude_h": 24.893,
    "estimated_diameter": {
        "kilometers": {
            "estimated_diameter_min": 0.0279225435,
            "estimated_diameter_max": 0.0624367054
        },
        "meters": {
            "estimated_diameter_min": 27.9225435268,
            "estimated_diameter_max": 62.4367054306
        },
        "miles": {
            "estimated_diameter_min": 0.0173502588,
            "estimated_diameter_max": 0.0387963581
        },
        "feet": {
            "estimated_diameter_min": 91.6093977045,
            "estimated_diameter_max": 204.8448406451
        }
    },
    "is_potentially_hazardous_asteroid": false,
    "close_approach_data": [
        {
            "close_approach_date": "2020-08-26",
            "close_approach_date_full": "2020-Aug-26 20:09",
            "epoch_date_close_approach": 1598472540000,
            "relative_velocity": {
                "kilometers_per_second": "6.6256683851",
                "kilometers_per_hour": "23852.4061862607",
                "miles_per_hour": "14820.9576105685"
            },
            "miss_distance": {
                "astronomical": "0.0524293447",
                "lunar": "20.3950150883",
                "kilometers": "7843318.292615789",
                "miles": "4873611.9946403282"
            },
            "orbiting_body": "Earth"
        }
    ],
    "orbital_data": {
        "orbit_id": "3",
        "orbit_determination_date": "2020-10-02 06:44:00",
        "first_observation_date": "2020-09-17",
        "last_observation_date": "2020-09-26",
        "data_arc_in_days": 9,
        "observations_used": 29,
        "orbit_uncertainty": "8",
        "minimum_orbit_intersection": ".0523378",
        "jupiter_tisserand_invariant": "3.413",
        "epoch_osculation": "2459111.5",
        "eccentricity": ".5372183949865128",
        "semi_major_axis": "2.261043141432804",
        "inclination": "2.129245507065276",
        "ascending_node_longitude": "250.5587117203224",
        "orbital_period": "1241.828721689273",
        "perihelion_distance": "1.04636917399701",
        "perihelion_argument": "85.40568090446538",
        "aphelion_distance": "3.475717108868597",
        "perihelion_time": "2459090.289213630009",
        "mean_anomaly": "6.148901986104478",
        "mean_motion": ".2898950505109014",
        "equinox": "J2000",
        "orbit_class": {
            "orbit_class_type": "AMO",
            "orbit_class_description": "Near-Earth asteroid orbits similar to that of 1221 Amor",
            "orbit_class_range": "1.017 AU < q (perihelion) < 1.3 AU"
        }
    },
    "is_sentry_object": false
}